[{"OBJECT_NAME":"ONEWEB-0034","OBJECT_ID":"2020-020AG","EPOCH":"2025-11-26T04:13:34.201056","MEAN_MOTION":13.11417999,"ECCENTRICITY":0.0001726,"INCLINATION":87.8871,"RA_OF_ASC_NODE":61.4808,"ARG_OF_PERICENTER":103.7927,"MEAN_ANOMALY":256.3393,"EPHEMERIS_TYPE":0,"CLASSIFICATION_TYPE":"U","NORAD_CAT_ID":45454,"ELEMENT_SET_NO":999,"REV_AT_EPOCH":27598,"BSTAR":0.0016915,"MEAN_MOTION_DOT":6.12e-6,"MEAN_MOTION_DDOT":0},{"OBJECT_NAME":"ONEWEB-0060","OBJECT_ID":"2020-020AH","EPOCH":"2025-11-25T18:22:42.923712","MEAN_MOTION":13.11420757,"ECCENTRICITY":0.0002756,"INCLINATION":87.8859,"RA_OF_ASC_NODE":61.5812,"ARG_OF_PERICENTER":115.4358,"MEAN_ANOMALY":244.7055,"EPHEMERIS_TYPE":0,"CLASSIFICATION_TYPE":"U","NORAD_CAT_ID":45455,"ELEMENT_SET_NO":999,"REV_AT_EPOCH":27588,"BSTAR":-0.00034390119,"MEAN_MOTION_DOT":-1.09e-6,"MEAN_MOTION_DDOT":0},{"OBJECT_NAME":"ONEWEB-0086","OBJECT_ID":"2020-020AJ","EPOCH":"2025-11-26T04:51:24.947712","MEAN_MOTION":13.11415341,"ECCENTRICITY":0.0002467,"INCLINATION":87.887,"RA_OF_ASC_NODE":61.4725,"ARG_OF_PERICENTER":99.0038,"MEAN_ANOMALY":261.1369,"EPHEMERIS_TYPE":0,"CLASSIFICATION_TYPE":"U","NORAD_CAT_ID":45456,"ELEMENT_SET_NO":999,"REV_AT_EPOCH":27600,"BSTAR":-0.0011118,"MEAN_MOTION_DOT":-3.81e-6,"MEAN_MOTION_DDOT":0},{"OBJECT_NAME":"ONEWEB-0088","OBJECT_ID":"2020-020AK","EPOCH":"2025-11-26T04:19:40.836000","MEAN_MOTION":13.11415058,"ECCENTRICITY":0.0001645,"INCLINATION":87.8881,"RA_OF_ASC_NODE":61.4302,"ARG_OF_PERICENTER":108.0362,"MEAN_ANOMALY":252.0945,"EPHEMERIS_TYPE":0,"CLASSIFICATION_TYPE":"U","NORAD_CAT_ID":45457,"ELEMENT_SET_NO":999,"REV_AT_EPOCH":27593,"BSTAR":0.0010659,"MEAN_MOTION_DOT":3.9e-6,"MEAN_MOTION_DDOT":0},{"OBJECT_NAME":"ONEWEB-0102","OBJECT_ID":"2020-100A","EPOCH":"2025-11-26T04:35:41.602272","MEAN_MOTION":13.12442159,"ECCENTRICITY":0.0001765,"INCLINATION":87.8954,"RA_OF_ASC_NODE":31.0142,"ARG_OF_PERICENTER":94.2843,"MEAN_ANOMALY":265.8487,"EPHEMERIS_TYPE":0,"CLASSIFICATION_TYPE":"U","NORAD_CAT_ID":47258,"ELEMENT_SET_NO":999,"REV_AT_EPOCH":23810,"BSTAR":-0.00052811,"MEAN_MOTION_DOT":-1.77e-6,"MEAN_MOTION_DDOT":0},{"OBJECT_NAME":"ONEWEB-0109","OBJECT_ID":"2020-100B","EPOCH":"2025-11-26T02:57:35.044128","MEAN_MOTION":13.12442613,"ECCENTRICITY":0.0001782,"INCLINATION":87.8957,"RA_OF_ASC_NODE":30.9955,"ARG_OF_PERICENTER":96.4099,"MEAN_ANOMALY":263.7233,"EPHEMERIS_TYPE":0,"CLASSIFICATION_TYPE":"U","NORAD_CAT_ID":47259,"ELEMENT_SET_NO":999,"REV_AT_EPOCH":23792,"BSTAR":-0.0011356,"MEAN_MOTION_DOT":-3.96e-6,"MEAN_MOTION_DDOT":0},{"OBJECT_NAME":"ONEWEB-0110","OBJECT_ID":"2020-100C","EPOCH":"2025-11-26T03:34:57.614016","MEAN_MOTION":13.12442641,"ECCENTRICITY":0.000206,"INCLINATION":87.8959,"RA_OF_ASC_NODE":30.9739,"ARG_OF_PERICENTER":99.8852,"MEAN_ANOMALY":260.2509,"EPHEMERIS_TYPE":0,"CLASSIFICATION_TYPE":"U","NORAD_CAT_ID":47260,"ELEMENT_SET_NO":999,"REV_AT_EPOCH":23809,"BSTAR":0.00031996,"MEAN_MOTION_DOT":1.28e-6,"MEAN_MOTION_DDOT":0},{"OBJECT_NAME":"ONEWEB-0111","OBJECT_ID":"2020-100D","EPOCH":"2025-11-26T04:19:20.769600","MEAN_MOTION":13.12441792,"ECCENTRICITY":0.0001782,"INCLINATION":87.8961,"RA_OF_ASC_NODE":30.9857,"ARG_OF_PERICENTER":99.0004,"MEAN_ANOMALY":261.1326,"EPHEMERIS_TYPE":0,"CLASSIFICATION_TYPE":"U","NORAD_CAT_ID":47261,"ELEMENT_SET_NO":999,"REV_AT_EPOCH":23793,"BSTAR":0.00036522,"MEAN_MOTION_DOT":1.44e-6,"MEAN_MOTION_DDOT":0},{"OBJECT_NAME":"ONEWEB-0114","OBJECT_ID":"2020-100E","EPOCH":"2025-11-26T03:13:55.538112","MEAN_MOTION":13.12443881,"ECCENTRICITY":0.0001595,"INCLINATION":87.8959,"RA_OF_ASC_NODE":30.9894,"ARG_OF_PERICENTER":91.5079,"MEAN_ANOMALY":268.6232,"EPHEMERIS_TYPE":0,"CLASSIFICATION_TYPE":"U","NORAD_CAT_ID":47262,"ELEMENT_SET_NO":999,"REV_AT_EPOCH":23788,"BSTAR":-0.00081266,"MEAN_MOTION_DOT":-2.8e-6,"MEAN_MOTION_DDOT":0},{"OBJECT_NAME":"ONEWEB-0117","OBJECT_ID":"2020-100F","EPOCH":"2025-11-26T03:02:15.349056","MEAN_MOTION":13.12443323,"ECCENTRICITY":0.0001798,"INCLINATION":87.8956,"RA_OF_ASC_NODE":30.9884,"ARG_OF_PERICENTER":100.2208,"MEAN_ANOMALY":259.9123,"EPHEMERIS_TYPE":0,"CLASSIFICATION_TYPE":"U","NORAD_CAT_ID":47263,"ELEMENT_SET_NO":999,"REV_AT_EPOCH":23789,"BSTAR":-0.0010782,"MEAN_MOTION_DOT":-3.75e-6,"MEAN_MOTION_DDOT":0},{"OBJECT_NAME":"ONEWEB-0118","OBJECT_ID":"2020-100G","EPOCH":"2025-11-26T03:48:59.060160","MEAN_MOTION":13.12442935,"ECCENTRICITY":0.0001432,"INCLINATION":87.896,"RA_OF_ASC_NODE":30.9813,"ARG_OF_PERICENTER":99.9902,"MEAN_ANOMALY":260.1389,"EPHEMERIS_TYPE":0,"CLASSIFICATION_TYPE":"U","NORAD_CAT_ID":47264,"ELEMENT_SET_NO":999,"REV_AT_EPOCH":23809,"BSTAR":0.0010777,"MEAN_MOTION_DOT":4.0e-6,"MEAN_MOTION_DDOT":0},{"OBJECT_NAME":"ONEWEB-0119","OBJECT_ID":"2020-100H","EPOCH":"2025-11-26T04:28:40.924128","MEAN_MOTION":13.12441937,"ECCENTRICITY":0.0001853,"INCLINATION":87.8953,"RA_OF_ASC_NODE":31.0121,"ARG_OF_PERICENTER":98.9957,"MEAN_ANOMALY":261.1381,"EPHEMERIS_TYPE":0,"CLASSIFICATION_TYPE":"U","NORAD_CAT_ID":47265,"ELEMENT_SET_NO":999,"REV_AT_EPOCH":23807,"BSTAR":-0.00033506,"MEAN_MOTION_DOT":-1.08e-6,"MEAN_MOTION_DDOT":0},{"OBJECT_NAME":"ONEWEB-0120","OBJECT_ID":"2020-100J","EPOCH":"2025-11-26T03:11:47.967648","MEAN_MOTION":13.12442767,"ECCENTRICITY":0.0001727,"INCLINATION":87.8951,"RA_OF_ASC_NODE":31.0233,"ARG_OF_PERICENTER":97.5199,"MEAN_ANOMALY":262.6126,"EPHEMERIS_TYPE":0,"CLASSIFICATION_TYPE":"U","NORAD_CAT_ID":47266,"ELEMENT_SET_NO":999,"REV_AT_EPOCH":23809,"BSTAR":-0.00098751,"MEAN_MOTION_DOT":-3.43e-6,"MEAN_MOTION_DDOT":0},{"OBJECT_NAME":"ONEWEB-0121","OBJECT_ID":"2020-100K","EPOCH":"2025-11-26T02:55:14.906784","MEAN_MOTION":13.12443129,"ECCENTRICITY":0.0001962,"INCLINATION":87.896,"RA_OF_ASC_NODE":30.9934,"ARG_OF_PERICENTER":101.0384,"MEAN_ANOMALY":259.0966,"EPHEMERIS_TYPE":0,"CLASSIFICATION_TYPE":"U","NORAD_CAT_ID":47267,"ELEMENT_SET_NO":999,"REV_AT_EPOCH":23800,"BSTAR":-0.0011009,"MEAN_MOTION_DOT":-3.83e-6,"MEAN_MOTION_DDOT":0},{"OBJECT_NAME":"ONEWEB-0122","OBJECT_ID":"2020-100L","EPOCH":"2025-11-26T04:37:49.757664","MEAN_MOTION":13.1244259,"ECCENTRICITY":0.0001879,"INCLINATION":87.896,"RA_OF_ASC_NODE":30.9818,"ARG_OF_PERICENTER":95.5285,"MEAN_ANOMALY":264.6058,"EPHEMERIS_TYPE":0,"CLASSIFICATION_TYPE":"U","NORAD_CAT_ID":47268,"ELEMENT_SET_NO":999,"REV_AT_EPOCH":23792,"BSTAR":-0.00071869,"MEAN_MOTION_DOT":-2.46e-6,"MEAN_MOTION_DDOT":0},{"OBJECT_NAME":"ONEWEB-0123","OBJECT_ID":"2020-100M","EPOCH":"2025-11-26T04:31:01.268832","MEAN_MOTION":13.12441314,"ECCENTRICITY":0.000169,"INCLINATION":87.8957,"RA_OF_ASC_NODE":31.0098,"ARG_OF_PERICENTER":102.4686,"MEAN_ANOMALY":257.6632,"EPHEMERIS_TYPE":0,"CLASSIFICATION_TYPE":"U","NORAD_CAT_ID":47269,"ELEMENT_SET_NO":999,"REV_AT_EPOCH":23806,"BSTAR":-0.00024181,"MEAN_MOTION_DOT":-7.4e-7,"MEAN_MOTION_DDOT":0},{"OBJECT_NAME":"ONEWEB-0124","OBJECT_ID":"2020-100N","EPOCH":"2025-11-26T04:14:40.513920","MEAN_MOTION":13.12441159,"ECCENTRICITY":0.000186,"INCLINATION":87.8957,"RA_OF_ASC_NODE":31.0164,"ARG_OF_PERICENTER":105.0789,"MEAN_ANOMALY":255.0545,"EPHEMERIS_TYPE":0,"CLASSIFICATION_TYPE":"U","NORAD_CAT_ID":47270,"ELEMENT_SET_NO":999,"REV_AT_EPOCH":23794,"BSTAR":0.0005241,"MEAN_MOTION_DOT":2.01e-6,"MEAN_MOTION_DDOT":0}]
