ONEWEB-0034             
1 45454U 20020AG  25330.17609029  .00000612  00000+0  16915-2 0  9995
2 45454  87.8871  61.4808 0001726 103.7927 256.3393 13.11417999275982
ONEWEB-0060             
1 45455U 20020AH  25329.76577458 -.00000109  00000+0 -34390-3 0  9990
2 45455  87.8859  61.5812 0002756 115.4358 244.7055 13.11420757275888
ONEWEB-0086             
1 45456U 20020AJ  25330.20237208 -.00000381  00000+0 -11118-2 0  9992
2 45456  87.8870  61.4725 0002467  99.0038 261.1369 13.11415341276004
ONEWEB-0088             
1 45457U 20020AK  25330.18033375  .00000390  00000+0  10659-2 0  9996
2 45457  87.8881  61.4302 0001645 108.0362 252.0945 13.11415058275931
ONEWEB-0102             
1 47258U 20100A   25330.19145373 -.00000177  00000+0 -52811-3 0  9991
2 47258  87.8954  31.0142 0001765  94.2843 265.8487 13.12442159238105
ONEWEB-0109             
1 47259U 20100B   25330.12332227 -.00000396  00000+0 -11356-2 0  9992
2 47259  87.8957  30.9955 0001782  96.4099 263.7233 13.12442613237925
ONEWEB-0110             
1 47260U 20100C   25330.14927794  .00000128  00000+0  31996-3 0  9999
2 47260  87.8959  30.9739 0002060  99.8852 260.2509 13.12442641238091
ONEWEB-0111             
1 47261U 20100D   25330.18010150  .00000144  00000+0  36522-3 0  9991
2 47261  87.8961  30.9857 0001782  99.0004 261.1326 13.12441792237932
ONEWEB-0114             
1 47262U 20100E   25330.13467058 -.00000280  00000+0 -81266-3 0  9998
2 47262  87.8959  30.9894 0001595  91.5079 268.6232 13.12443881237885
ONEWEB-0117             
1 47263U 20100F   25330.12656654 -.00000375  00000+0 -10782-2 0  9999
2 47263  87.8956  30.9884 0001798 100.2208 259.9123 13.12443323237893
ONEWEB-0118             
1 47264U 20100G   25330.15901690  .00000400  00000+0  10777-2 0  9997
2 47264  87.8960  30.9813 0001432  99.9902 260.1389 13.12442935238090
ONEWEB-0119             
1 47265U 20100H   25330.18658477 -.00000108  00000+0 -33506-3 0  9996
2 47265  87.8953  31.0121 0001853  98.9957 261.1381 13.12441937238075
ONEWEB-0120             
1 47266U 20100J   25330.13319407 -.00000343  00000+0 -98751-3 0  9993
2 47266  87.8951  31.0233 0001727  97.5199 262.6126 13.12442767238098
ONEWEB-0121             
1 47267U 20100K   25330.12170031 -.00000383  00000+0 -11009-2 0  9995
2 47267  87.8960  30.9934 0001962 101.0384 259.0966 13.12443129238009
ONEWEB-0122             
1 47268U 20100L   25330.19293701 -.00000246  00000+0 -71869-3 0  9992
2 47268  87.8960  30.9818 0001879  95.5285 264.6058 13.12442590237920
ONEWEB-0123             
1 47269U 20100M   25330.18820913 -.00000074  00000+0 -24181-3 0  9997
2 47269  87.8957  31.0098 0001690 102.4686 257.6632 13.12441314238062
ONEWEB-0124             
1 47270U 20100N   25330.17685780  .00000201  00000+0  52410-3 0  9995
2 47270  87.8957  31.0164 0001860 105.0789 255.0545 13.12441159237948
